GLOBALSTAR M035         
1 25851U 99037A   24318.92597939 -.00000071  00000+0 -27104-3 0  9996
2 25851  51.9913 175.0188 0013878 359.0246 102.5260 11.04534990 72480
GLOBALSTAR M032         
1 25852U 99037B   24318.88310878 -.00000170  00000+0 -33129-2 0  9990
2 25852  51.9989  15.1612 0010959 165.8891 194.2217 11.19057503110744
GLOBALSTAR M051         
1 25853U 99037C   24318.94821127 -.00000076  00000+0 -10730-3 0  9991
2 25853  51.9778 200.1293 0001125 133.4068 226.6837 11.42199022107815
GLOBALSTAR M030         
1 25854U 99037D   24318.87178938 -.00000119  00000+0 -94151-3 0  9996
2 25854  51.9909  20.1077 0003691  27.1421 332.9589 11.55101180125260
GLOBALSTAR M048         
1 25872U 99041A   24318.85655470 -.00000045  00000+0  67951-3 0  9995
2 25872  51.9332 127.0563 0013700 166.7533 338.9819 11.33851969100441
GLOBALSTAR M026         
1 25873U 99041B   24318.69427174 -.00000056  00000+0  29810-3 0  9990
2 25873  52.0017 295.7583 0001110 268.7160 261.9382 11.06827750124627
GLOBALSTAR M043         
1 25874U 99041C   24318.15670431 -.00000047  00000+0  63366-3 0  9992
2 25874  51.9398 227.7553 0012739 307.4328 202.0961 11.25687177 98544
GLOBALSTAR M028         
1 25875U 99041D   24318.75634171 -.00000058  00000+0  27061-3 0  9994
2 25875  51.9607 115.4350 0062634 324.1976  35.4695 12.50570212163220
